{"type": "FeatureCollection", "features": [{"type": "Feature", "properties": {"kind": "cooling_center", "name": "Cooling Center 1"}, "geometry": {"type": "Point", "coordinates": [-118.5459, 34.0069]}}, {"type": "Feature", "properties": {"kind": "cooling_center", "name": "Cooling Center 2"}, "geometry": {"type": "Point", "coordinates": [-118.4635, 34.1366]}}, {"type": "Feature", "properties": {"kind": "cooling_center", "name": "Cooling Center 3"}, "geometry": {"type": "Point", "coordinates": [-118.4426, 33.9903]}}, {"type": "Feature", "properties": {"kind": "cooling_center", "name": "Cooling Center 4"}, "geometry": {"type": "Point", "coordinates": [-118.3439, 34.038]}}, {"type": "Feature", "properties": {"kind": "cooling_center", "name": "Cooling Center 5"}, "geometry": {"type": "Point", "coordinates": [-118.2606, 34.1268]}}, {"type": "Feature", "properties": {"kind": "cooling_center", "name": "Cooling Center 6"}, "geometry": {"type": "Point", "coordinates": [-118.4791, 34.0423]}}, {"type": "Feature", "properties": {"kind": "cooling_center", "name": "Cooling Center 7"}, "geometry": {"type": "Point", "coordinates": [-118.3559, 34.0319]}}, {"type": "Feature", "properties": {"kind": "cooling_center", "name": "Cooling Center 8"}, "geometry": {"type": "Point", "coordinates": [-118.3423, 33.9137]}}, {"type": "Feature", "properties": {"kind": "cooling_center", "name": "Cooling Center 9"}, "geometry": {"type": "Point", "coordinates": [-118.4976, 33.9821]}}, {"type": "Feature", "properties": {"kind": "cooling_center", "name": "Cooling Center 10"}, "geometry": {"type": "Point", "coordinates": [-118.419, 33.9806]}}, {"type": "Feature", "properties": {"kind": "cooling_center", "name": "Cooling Center 11"}, "geometry": {"type": "Point", "coordinates": [-118.4567, 34.0702]}}, {"type": "Feature", "properties": {"kind": "cooling_center", "name": "Cooling Center 12"}, "geometry": {"type": "Point", "coordinates": [-118.3945, 34.0206]}}, {"type": "Feature", "properties": {"kind": "cooling_center", "name": "Cooling Center 13"}, "geometry": {"type": "Point", "coordinates": [-118.2835, 33.9368]}}, {"type": "Feature", "properties": {"kind": "cooling_center", "name": "Cooling Center 14"}, "geometry": {"type": "Point", "coordinates": [-118.4883, 34.0997]}}]}