{"type": "FeatureCollection", "features": [{"type": "Feature", "properties": {"name": "Marina del Rey", "place": "quarter"}, "geometry": {"type": "Point", "coordinates": [-118.44865, 33.97768]}}, {"type": "Feature", "properties": {"name": "Venice", "place": "suburb"}, "geometry": {"type": "Point", "coordinates": [-118.46689, 33.99504]}}, {"type": "Feature", "properties": {"name": "La Crescenta", "place": "suburb"}, "geometry": {"type": "Point", "coordinates": [-118.23507, 34.23043]}}, {"type": "Feature", "properties": {"name": "Lynwood", "place": "town"}, "geometry": {"type": "Point", "coordinates": [-118.20242, 33.92483]}}, {"type": "Feature", "properties": {"name": "Harbor City", "place": "quarter"}, "geometry": {"type": "Point", "coordinates": [-118.30126, 33.7911]}}, {"type": "Feature", "properties": {"name": "Strawberry Park", "place": "neighbourhood"}, "geometry": {"type": "Point", "coordinates": [-118.31146, 33.90085]}}, {"type": "Feature", "properties": {"name": "Moneta", "place": "neighbourhood"}, "geometry": {"type": "Point", "coordinates": [-118.31757, 33.88002]}}, {"type": "Feature", "properties": {"name": "Cudahy", "place": "town"}, "geometry": {"type": "Point", "coordinates": [-118.18354, 33.96206]}}, {"type": "Feature", "properties": {"name": "Lincoln Heights", "place": "suburb"}, "geometry": {"type": "Point", "coordinates": [-118.2112, 34.07266]}}, {"type": "Feature", "properties": {"name": "Firestone Park", "place": "village"}, "geometry": {"type": "Point", "coordinates": [-118.23257, 33.96307]}}, {"type": "Feature", "properties": {"name": "Wildasin", "place": "neighbourhood"}, "geometry": {"type": "Point", "coordinates": [-118.29926, 33.98926]}}, {"type": "Feature", "properties": {"name": "Tujunga", "place": "suburb"}, "geometry": {"type": "Point", "coordinates": [-118.28841, 34.25223]}}, {"type": "Feature", "properties": {"name": "Harbor Hills", "place": "village"}, "geometry": {"type": "Point", "coordinates": [-118.31479, 33.7803]}}, {"type": "Feature", "properties": {"name": "El Sereno", "place": "quarter"}, "geometry": {"type": "Point", "coordinates": [-118.17785, 34.08112]}}, {"type": "Feature", "properties": {"name": "Van Ness", "place": "neighbourhood"}, "geometry": {"type": "Point", "coordinates": [-118.3196, 33.98302]}}, {"type": "Feature", "properties": {"name": "Jefferson Park", "place": "quarter"}, "geometry": {"type": "Point", "coordinates": [-118.32246, 34.02962]}}, {"type": "Feature", "properties": {"name": "Century City", "place": "quarter"}, "geometry": {"type": "Point", "coordinates": [-118.41461, 34.05736]}}, {"type": "Feature", "properties": {"name": "Ocean Park", "place": "neighbourhood"}, "geometry": {"type": "Point", "coordinates": [-118.48369, 34.00223]}}, {"type": "Feature", "properties": {"name": "Palos Verdes Estates", "place": "suburb"}, "geometry": {"type": "Point", "coordinates": [-118.40181, 33.78724]}}, {"type": "Feature", "properties": {"name": "Rancho Dominguez", "place": "suburb"}, "geometry": {"type": "Point", "coordinates": [-118.21672, 33.85956]}}, {"type": "Feature", "properties": {"name": "Watts", "place": "neighbourhood"}, "geometry": {"type": "Point", "coordinates": [-118.2429, 33.94059]}}, {"type": "Feature", "properties": {"name": "Silver Lake Heights", "place": "neighbourhood"}, "geometry": {"type": "Point", "coordinates": [-118.25646, 34.09945]}}, {"type": "Feature", "properties": {"name": "Shadow Hills", "place": "quarter"}, "geometry": {"type": "Point", "coordinates": [-118.35175, 34.26195]}}, {"type": "Feature", "properties": {"name": "Stonehurst", "place": "neighbourhood"}, "geometry": {"type": "Point", "coordinates": [-118.37036, 34.25111]}}, {"type": "Feature", "properties": {"name": "Carson", "place": "city"}, "geometry": {"type": "Point", "coordinates": [-118.25175, 33.8322]}}, {"type": "Feature", "properties": {"name": "Athens", "place": "suburb"}, "geometry": {"type": "Point", "coordinates": [-118.27905, 33.92041]}}, {"type": "Feature", "properties": {"name": "Newton Park", "place": "neighbourhood"}, "geometry": {"type": "Point", "coordinates": [-118.17924, 34.09084]}}, {"type": "Feature", "properties": {"name": "Mission Hills", "place": "neighbourhood"}, "geometry": {"type": "Point", "coordinates": [-118.46703, 34.25722]}}, {"type": "Feature", "properties": {"name": "San Pedro", "place": "suburb"}, "geometry": {"type": "Point", "coordinates": [-118.29229, 33.73585]}}, {"type": "Feature", "properties": {"name": "Granada Hills", "place": "suburb"}, "geometry": {"type": "Point", "coordinates": [-118.51743, 34.26616]}}, {"type": "Feature", "properties": {"name": "Westchester", "place": "suburb"}, "geometry": {"type": "Point", "coordinates": [-118.40063, 33.95973]}}, {"type": "Feature", "properties": {"name": "Inglewood", "place": "city"}, "geometry": {"type": "Point", "coordinates": [-118.35313, 33.9562]}}, {"type": "Feature", "properties": {"name": "Pacific Palisades", "place": "suburb"}, "geometry": {"type": "Point", "coordinates": [-118.52647, 34.04806]}}, {"type": "Feature", "properties": {"name": "North Long Beach", "place": "suburb"}, "geometry": {"type": "Point", "coordinates": [-118.18563, 33.86001]}}, {"type": "Feature", "properties": {"name": "Westgate Heights", "place": "neighbourhood"}, "geometry": {"type": "Point", "coordinates": [-118.47314, 34.0664]}}, {"type": "Feature", "properties": {"name": "Bandini", "place": "neighbourhood"}, "geometry": {"type": "Point", "coordinates": [-118.16785, 34.00668]}}, {"type": "Feature", "properties": {"name": "Rancho Palos Verdes", "place": "town"}, "geometry": {"type": "Point", "coordinates": [-118.37077, 33.74833]}}, {"type": "Feature", "properties": {"name": "Willowbrook", "place": "suburb"}, "geometry": {"type": "Point", "coordinates": [-118.24185, 33.92042]}}, {"type": "Feature", "properties": {"name": "Beverly Hills", "place": "town"}, "geometry": {"type": "Point", "coordinates": [-118.39631, 34.06965]}}, {"type": "Feature", "properties": {"name": "Raymer", "place": "neighbourhood"}, "geometry": {"type": "Point", "coordinates": [-118.46536, 34.21473]}}, {"type": "Feature", "properties": {"name": "Ironsides", "place": "neighbourhood"}, "geometry": {"type": "Point", "coordinates": [-118.30618, 33.81113]}}, {"type": "Feature", "properties": {"name": "Woodland Hills", "place": "suburb"}, "geometry": {"type": "Point", "coordinates": [-118.60584, 34.16844]}}, {"type": "Feature", "properties": {"name": "Atwater Village", "place": "quarter"}, "geometry": {"type": "Point", "coordinates": [-118.26239, 34.1187]}}, {"type": "Feature", "properties": {"name": "Westmont", "place": "suburb"}, "geometry": {"type": "Point", "coordinates": [-118.3023, 33.9414]}}, {"type": "Feature", "properties": {"name": "Torrance", "place": "city"}, "geometry": {"type": "Point", "coordinates": [-118.34136, 33.83714]}}, {"type": "Feature", "properties": {"name": "Garnsey", "place": "neighbourhood"}, "geometry": {"type": "Point", "coordinates": [-118.40222, 34.16877]}}, {"type": "Feature", "properties": {"name": "Carthay", "place": "neighbourhood"}, "geometry": {"type": "Point", "coordinates": [-118.3673, 34.06112]}}, {"type": "Feature", "properties": {"name": "Culver City", "place": "town"}, "geometry": {"type": "Point", "coordinates": [-118.39647, 34.02112]}}, {"type": "Feature", "properties": {"name": "Trousdale Estates", "place": "neighbourhood"}, "geometry": {"type": "Point", "coordinates": [-118.39536, 34.10501]}}, {"type": "Feature", "properties": {"name": "La Ca\u00f1ada Flintridge", "place": "town"}, "geometry": {"type": "Point", "coordinates": [-118.20052, 34.19983]}}, {"type": "Feature", "properties": {"name": "Calabasas", "place": "town"}, "geometry": {"type": "Point", "coordinates": [-118.6441, 34.14466]}}, {"type": "Feature", "properties": {"name": "Eagle Rock", "place": "suburb"}, "geometry": {"type": "Point", "coordinates": [-118.2141, 34.13903]}}, {"type": "Feature", "properties": {"name": "Hancock Park", "place": "quarter"}, "geometry": {"type": "Point", "coordinates": [-118.33505, 34.07368]}}, {"type": "Feature", "properties": {"name": "Sentous", "place": "neighbourhood"}, "geometry": {"type": "Point", "coordinates": [-118.36957, 34.02562]}}, {"type": "Feature", "properties": {"name": "City Terrace", "place": "neighbourhood"}, "geometry": {"type": "Point", "coordinates": [-118.18285, 34.05001]}}, {"type": "Feature", "properties": {"name": "Dayton Avenue", "place": "neighbourhood"}, "geometry": {"type": "Point", "coordinates": [-118.22257, 34.0839]}}, {"type": "Feature", "properties": {"name": "Panorama City", "place": "suburb"}, "geometry": {"type": "Point", "coordinates": [-118.44537, 34.22429]}}, {"type": "Feature", "properties": {"name": "Rolling Hills", "place": "suburb"}, "geometry": {"type": "Point", "coordinates": [-118.34966, 33.7668]}}, {"type": "Feature", "properties": {"name": "California Heights", "place": "suburb"}, "geometry": {"type": "Point", "coordinates": [-118.17668, 33.82639]}}, {"type": "Feature", "properties": {"name": "Westwood Village", "place": "neighbourhood"}, "geometry": {"type": "Point", "coordinates": [-118.44463, 34.05965]}}, {"type": "Feature", "properties": {"name": "Village Green", "place": "neighbourhood"}, "geometry": {"type": "Point", "coordinates": [-118.36066, 34.01987]}}, {"type": "Feature", "properties": {"name": "Dolanco Junction", "place": "neighbourhood"}, "geometry": {"type": "Point", "coordinates": [-118.29943, 33.84621]}}, {"type": "Feature", "properties": {"name": "Lake View Terrace", "place": "neighbourhood"}, "geometry": {"type": "Point", "coordinates": [-118.36119, 34.27639]}}, {"type": "Feature", "properties": {"name": "Sylmar", "place": "suburb"}, "geometry": {"type": "Point", "coordinates": [-118.44921, 34.30763]}}, {"type": "Feature", "properties": {"name": "Sherman Oaks", "place": "suburb"}, "geometry": {"type": "Point", "coordinates": [-118.44899, 34.15087]}}, {"type": "Feature", "properties": {"name": "Bixby Knolls", "place": "suburb"}, "geometry": {"type": "Point", "coordinates": [-118.17674, 33.83557]}}, {"type": "Feature", "properties": {"name": "West Athens", "place": "quarter"}, "geometry": {"type": "Point", "coordinates": [-118.30028, 33.92401]}}, {"type": "Feature", "properties": {"name": "Riviera", "place": "neighbourhood"}, "geometry": {"type": "Point", "coordinates": [-118.50157, 34.05776]}}, {"type": "Feature", "properties": {"name": "Winnetka", "place": "suburb"}, "geometry": {"type": "Point", "coordinates": [-118.5711, 34.20132]}}, {"type": "Feature", "properties": {"name": "Lakeside Park", "place": "neighbourhood"}, "geometry": {"type": "Point", "coordinates": [-118.64984, 34.22599]}}, {"type": "Feature", "properties": {"name": "Reseda", "place": "suburb"}, "geometry": {"type": "Point", "coordinates": [-118.53569, 34.20077]}}, {"type": "Feature", "properties": {"name": "Morningside Park", "place": "quarter"}, "geometry": {"type": "Point", "coordinates": [-118.32646, 33.95974]}}, {"type": "Feature", "properties": {"name": "Van Nuys", "place": "suburb"}, "geometry": {"type": "Point", "coordinates": [-118.44867, 34.18662]}}, {"type": "Feature", "properties": {"name": "Hollydale", "place": "neighbourhood"}, "geometry": {"type": "Point", "coordinates": [-118.1617, 33.91613]}}, {"type": "Feature", "properties": {"name": "Country Club Park", "place": "neighbourhood"}, "geometry": {"type": "Point", "coordinates": [-118.32119, 34.05029]}}, {"type": "Feature", "properties": {"name": "Cypress Park", "place": "quarter"}, "geometry": {"type": "Point", "coordinates": [-118.22452, 34.09223]}}, {"type": "Feature", "properties": {"name": "Northridge", "place": "suburb"}, "geometry": {"type": "Point", "coordinates": [-118.53693, 34.23456]}}, {"type": "Feature", "properties": {"name": "Roosevelt", "place": "neighbourhood"}, "geometry": {"type": "Point", "coordinates": [-118.30368, 33.86474]}}, {"type": "Feature", "properties": {"name": "Brentwood Park", "place": "neighbourhood"}, "geometry": {"type": "Point", "coordinates": [-118.48814, 34.05501]}}, {"type": "Feature", "properties": {"name": "Dominguez", "place": "neighbourhood"}, "geometry": {"type": "Point", "coordinates": [-118.21868, 33.83474]}}, {"type": "Feature", "properties": {"name": "San Fernando", "place": "town"}, "geometry": {"type": "Point", "coordinates": [-118.43765, 34.28497]}}, {"type": "Feature", "properties": {"name": "Universal City", "place": "quarter"}, "geometry": {"type": "Point", "coordinates": [-118.35841, 34.14192]}}, {"type": "Feature", "properties": {"name": "Willowville", "place": "suburb"}, "geometry": {"type": "Point", "coordinates": [-118.18924, 33.80557]}}, {"type": "Feature", "properties": {"name": "Hidden Hills", "place": "village"}, "geometry": {"type": "Point", "coordinates": [-118.65784, 34.16409]}}, {"type": "Feature", "properties": {"name": "Boyle Heights", "place": "suburb"}, "geometry": {"type": "Point", "coordinates": [-118.20977, 34.04369]}}, {"type": "Feature", "properties": {"name": "Wilmington", "place": "suburb"}, "geometry": {"type": "Point", "coordinates": [-118.26251, 33.78002]}}, {"type": "Feature", "properties": {"name": "Saint James Park", "place": "neighbourhood"}, "geometry": {"type": "Point", "coordinates": [-118.28007, 34.03112]}}, {"type": "Feature", "properties": {"name": "Lomita", "place": "town"}, "geometry": {"type": "Point", "coordinates": [-118.3195, 33.80365]}}, {"type": "Feature", "properties": {"name": "Maywood", "place": "town"}, "geometry": {"type": "Point", "coordinates": [-118.18535, 33.98668]}}, {"type": "Feature", "properties": {"name": "Mount Washington", "place": "neighbourhood"}, "geometry": {"type": "Point", "coordinates": [-118.22111, 34.09884]}}, {"type": "Feature", "properties": {"name": "Sun Valley", "place": "suburb"}, "geometry": {"type": "Point", "coordinates": [-118.38789, 34.22042]}}, {"type": "Feature", "properties": {"name": "Bell", "place": "town"}, "geometry": {"type": "Point", "coordinates": [-118.18664, 33.97478]}}, {"type": "Feature", "properties": {"name": "Bell Gardens", "place": "town"}, "geometry": {"type": "Point", "coordinates": [-118.1504, 33.96946]}}, {"type": "Feature", "properties": {"name": "Del Aire", "place": "suburb"}, "geometry": {"type": "Point", "coordinates": [-118.37085, 33.91776]}}, {"type": "Feature", "properties": {"name": "Bridgedale", "place": "neighbourhood"}, "geometry": {"type": "Point", "coordinates": [-118.32868, 33.87835]}}, {"type": "Feature", "properties": {"name": "Encino", "place": "suburb"}, "geometry": {"type": "Point", "coordinates": [-118.50162, 34.15913]}}, {"type": "Feature", "properties": {"name": "Omaha Heights", "place": "neighbourhood"}, "geometry": {"type": "Point", "coordinates": [-118.18841, 34.0814]}}, {"type": "Feature", "properties": {"name": "Redondo Beach", "place": "town"}, "geometry": {"type": "Point", "coordinates": [-118.38459, 33.83983]}}, {"type": "Feature", "properties": {"name": "Highland Park", "place": "suburb"}, "geometry": {"type": "Point", "coordinates": [-118.19698, 34.10995]}}, {"type": "Feature", "properties": {"name": "Montrose", "place": "suburb"}, "geometry": {"type": "Point", "coordinates": [-118.22889, 34.20642]}}, {"type": "Feature", "properties": {"name": "West Hollywood", "place": "town"}, "geometry": {"type": "Point", "coordinates": [-118.36929, 34.0923]}}, {"type": "Feature", "properties": {"name": "Lincoln Village", "place": "neighbourhood"}, "geometry": {"type": "Point", "coordinates": [-118.22285, 33.82779]}}, {"type": "Feature", "properties": {"name": "New Chinatown", "place": "neighbourhood"}, "geometry": {"type": "Point", "coordinates": [-118.23896, 34.06251]}}, {"type": "Feature", "properties": {"name": "Adams Square", "place": "neighbourhood"}, "geometry": {"type": "Point", "coordinates": [-118.24119, 34.13362]}}, {"type": "Feature", "properties": {"name": "Sunland", "place": "suburb"}, "geometry": {"type": "Point", "coordinates": [-118.3023, 34.26695]}}, {"type": "Feature", "properties": {"name": "Signal Hill", "place": "town"}, "geometry": {"type": "Point", "coordinates": [-118.16826, 33.80483]}}, {"type": "Feature", "properties": {"name": "Baird Park", "place": "neighbourhood"}, "geometry": {"type": "Point", "coordinates": [-118.18118, 34.08695]}}, {"type": "Feature", "properties": {"name": "Canoga Park", "place": "suburb"}, "geometry": {"type": "Point", "coordinates": [-118.59781, 34.20111]}}, {"type": "Feature", "properties": {"name": "Nevin", "place": "neighbourhood"}, "geometry": {"type": "Point", "coordinates": [-118.24618, 34.01418]}}, {"type": "Feature", "properties": {"name": "Mar Vista", "place": "suburb"}, "geometry": {"type": "Point", "coordinates": [-118.43916, 34.00376]}}, {"type": "Feature", "properties": {"name": "Brentwood", "place": "suburb"}, "geometry": {"type": "Point", "coordinates": [-118.47407, 34.05214]}}, {"type": "Feature", "properties": {"name": "La Fresa", "place": "suburb"}, "geometry": {"type": "Point", "coordinates": [-118.33591, 33.87279]}}, {"type": "Feature", "properties": {"name": "Koreatown", "place": "suburb"}, "geometry": {"type": "Point", "coordinates": [-118.30545, 34.06179]}}, {"type": "Feature", "properties": {"name": "Sparr Heights", "place": "neighbourhood"}, "geometry": {"type": "Point", "coordinates": [-118.22591, 34.19584]}}, {"type": "Feature", "properties": {"name": "Pacoima", "place": "suburb"}, "geometry": {"type": "Point", "coordinates": [-118.42703, 34.2625]}}, {"type": "Feature", "properties": {"name": "Castellammare", "place": "neighbourhood"}, "geometry": {"type": "Point", "coordinates": [-118.56119, 34.04251]}}, {"type": "Feature", "properties": {"name": "Avalon Village", "place": "neighbourhood"}, "geometry": {"type": "Point", "coordinates": [-118.2642, 33.81273]}}, {"type": "Feature", "properties": {"name": "Alondra Park", "place": "village"}, "geometry": {"type": "Point", "coordinates": [-118.33091, 33.88946]}}, {"type": "Feature", "properties": {"name": "South Carthay", "place": "neighbourhood"}, "geometry": {"type": "Point", "coordinates": [-118.37341, 34.05612]}}, {"type": "Feature", "properties": {"name": "Ladera Heights", "place": "suburb"}, "geometry": {"type": "Point", "coordinates": [-118.3698, 33.98795]}}, {"type": "Feature", "properties": {"name": "Park La Brea", "place": "neighbourhood"}, "geometry": {"type": "Point", "coordinates": [-118.35524, 34.0674]}}, {"type": "Feature", "properties": {"name": "Keystone", "place": "suburb"}, "geometry": {"type": "Point", "coordinates": [-118.27423, 33.8272]}}, {"type": "Feature", "properties": {"name": "Playa del Rey", "place": "quarter"}, "geometry": {"type": "Point", "coordinates": [-118.43881, 33.95415]}}, {"type": "Feature", "properties": {"name": "Brentwood Heights", "place": "neighbourhood"}, "geometry": {"type": "Point", "coordinates": [-118.4748, 34.06362]}}, {"type": "Feature", "properties": {"name": "Rose Hill", "place": "neighbourhood"}, "geometry": {"type": "Point", "coordinates": [-118.19674, 34.08195]}}, {"type": "Feature", "properties": {"name": "Lennox", "place": "suburb"}, "geometry": {"type": "Point", "coordinates": [-118.35744, 33.93903]}}, {"type": "Feature", "properties": {"name": "El Nido", "place": "neighbourhood"}, "geometry": {"type": "Point", "coordinates": [-118.36146, 33.86557]}}, {"type": "Feature", "properties": {"name": "Little Tokyo", "place": "quarter"}, "geometry": {"type": "Point", "coordinates": [-118.23989, 34.04851]}}, {"type": "Feature", "properties": {"name": "Angeleno Heights", "place": "quarter"}, "geometry": {"type": "Point", "coordinates": [-118.2548, 34.07029]}}, {"type": "Feature", "properties": {"name": "North Glendale", "place": "neighbourhood"}, "geometry": {"type": "Point", "coordinates": [-118.26452, 34.16056]}}, {"type": "Feature", "properties": {"name": "Bel Air", "place": "quarter"}, "geometry": {"type": "Point", "coordinates": [-118.44798, 34.08273]}}, {"type": "Feature", "properties": {"name": "East Los Angeles", "place": "suburb"}, "geometry": {"type": "Point", "coordinates": [-118.17202, 34.0239]}}, {"type": "Feature", "properties": {"name": "Huntington Park", "place": "town"}, "geometry": {"type": "Point", "coordinates": [-118.22521, 33.98057]}}, {"type": "Feature", "properties": {"name": "Hermosa Beach", "place": "town"}, "geometry": {"type": "Point", "coordinates": [-118.39921, 33.86378]}}, {"type": "Feature", "properties": {"name": "Chatsworth", "place": "suburb"}, "geometry": {"type": "Point", "coordinates": [-118.6017, 34.25725]}}, {"type": "Feature", "properties": {"name": "Studio City", "place": "suburb"}, "geometry": {"type": "Point", "coordinates": [-118.39619, 34.1484]}}, {"type": "Feature", "properties": {"name": "Rolling Hills Estates", "place": "suburb"}, "geometry": {"type": "Point", "coordinates": [-118.35813, 33.78779]}}, {"type": "Feature", "properties": {"name": "Vista del Mar", "place": "suburb"}, "geometry": {"type": "Point", "coordinates": [-118.19868, 33.8189]}}, {"type": "Feature", "properties": {"name": "Hewitt", "place": "neighbourhood"}, "geometry": {"type": "Point", "coordinates": [-118.39008, 34.19973]}}, {"type": "Feature", "properties": {"name": "Hyde Park", "place": "suburb"}, "geometry": {"type": "Point", "coordinates": [-118.33086, 33.9854]}}, {"type": "Feature", "properties": {"name": "Beverly Glen", "place": "neighbourhood"}, "geometry": {"type": "Point", "coordinates": [-118.44564, 34.10779]}}, {"type": "Feature", "properties": {"name": "West Carson", "place": "suburb"}, "geometry": {"type": "Point", "coordinates": [-118.29291, 33.82438]}}, {"type": "Feature", "properties": {"name": "Sawtelle", "place": "suburb"}, "geometry": {"type": "Point", "coordinates": [-118.4508, 34.03989]}}, {"type": "Feature", "properties": {"name": "Dogtown", "place": "neighbourhood"}, "geometry": {"type": "Point", "coordinates": [-118.23057, 34.06392]}}, {"type": "Feature", "properties": {"name": "Glassell Park", "place": "neighbourhood"}, "geometry": {"type": "Point", "coordinates": [-118.22896, 34.11612]}}, {"type": "Feature", "properties": {"name": "Venice Canal Historic District", "place": "neighbourhood"}, "geometry": {"type": "Point", "coordinates": [-118.46619, 33.98418]}}, {"type": "Feature", "properties": {"name": "Whitley Heights Historic District", "place": "neighbourhood"}, "geometry": {"type": "Point", "coordinates": [-118.33363, 34.10738]}}, {"type": "Feature", "properties": {"name": "Wilton Historic District", "place": "neighbourhood"}, "geometry": {"type": "Point", "coordinates": [-118.31424, 34.07223]}}, {"type": "Feature", "properties": {"name": "West Hills", "place": "suburb"}, "geometry": {"type": "Point", "coordinates": [-118.64548, 34.20323]}}, {"type": "Feature", "properties": {"name": "Warner Center", "place": "suburb"}, "geometry": {"type": "Point", "coordinates": [-118.59787, 34.17973]}}, {"type": "Feature", "properties": {"name": "Los Angeles", "place": "city"}, "geometry": {"type": "Point", "coordinates": [-118.24277, 34.05369]}}, {"type": "Feature", "properties": {"name": "Windsor Hills", "place": "neighbourhood"}, "geometry": {"type": "Point", "coordinates": [-118.35412, 33.98696]}}, {"type": "Feature", "properties": {"name": "Leimert Park", "place": "quarter"}, "geometry": {"type": "Point", "coordinates": [-118.33145, 34.00844]}}, {"type": "Feature", "properties": {"name": "Culver Garden", "place": "neighbourhood"}, "geometry": {"type": "Point", "coordinates": [-118.42804, 33.99381]}}, {"type": "Feature", "properties": {"name": "Jefferson", "place": "quarter"}, "geometry": {"type": "Point", "coordinates": [-118.2716, 34.01774]}}, {"type": "Feature", "properties": {"name": "Walker", "place": "neighbourhood"}, "geometry": {"type": "Point", "coordinates": [-118.17323, 33.98124]}}, {"type": "Feature", "properties": {"name": "South Gate", "place": "city"}, "geometry": {"type": "Point", "coordinates": [-118.20098, 33.94635]}}, {"type": "Feature", "properties": {"name": "Gardena", "place": "city"}, "geometry": {"type": "Point", "coordinates": [-118.29359, 33.88156]}}, {"type": "Feature", "properties": {"name": "Lawndale", "place": "town"}, "geometry": {"type": "Point", "coordinates": [-118.35263, 33.89512]}}, {"type": "Feature", "properties": {"name": "Glendale", "place": "city"}, "geometry": {"type": "Point", "coordinates": [-118.24785, 34.14694]}}, {"type": "Feature", "properties": {"name": "West Glendale", "place": "quarter"}, "geometry": {"type": "Point", "coordinates": [-118.27405, 34.14775]}}, {"type": "Feature", "properties": {"name": "Santa Monica", "place": "city"}, "geometry": {"type": "Point", "coordinates": [-118.49123, 34.01947]}}, {"type": "Feature", "properties": {"name": "Walnut Park", "place": "suburb"}, "geometry": {"type": "Point", "coordinates": [-118.22399, 33.96928]}}, {"type": "Feature", "properties": {"name": "Vernon", "place": "town"}, "geometry": {"type": "Point", "coordinates": [-118.22525, 34.00713]}}, {"type": "Feature", "properties": {"name": "North Hollywood", "place": "suburb"}, "geometry": {"type": "Point", "coordinates": [-118.37475, 34.16495]}}, {"type": "Feature", "properties": {"name": "Valley Village", "place": "quarter"}, "geometry": {"type": "Point", "coordinates": [-118.39658, 34.16371]}}, {"type": "Feature", "properties": {"name": "Hollywood Hills", "place": "quarter"}, "geometry": {"type": "Point", "coordinates": [-118.34658, 34.12169]}}, {"type": "Feature", "properties": {"name": "Hollywood", "place": "suburb"}, "geometry": {"type": "Point", "coordinates": [-118.32952, 34.098]}}, {"type": "Feature", "properties": {"name": "Little Armenia", "place": "neighbourhood"}, "geometry": {"type": "Point", "coordinates": [-118.3045, 34.09817]}}, {"type": "Feature", "properties": {"name": "Compton", "place": "city"}, "geometry": {"type": "Point", "coordinates": [-118.22662, 33.89493]}}, {"type": "Feature", "properties": {"name": "Paramount", "place": "town"}, "geometry": {"type": "Point", "coordinates": [-118.171, 33.89892]}}, {"type": "Feature", "properties": {"name": "El Segundo", "place": "town"}, "geometry": {"type": "Point", "coordinates": [-118.41563, 33.91703]}}, {"type": "Feature", "properties": {"name": "Hawthorne", "place": "town"}, "geometry": {"type": "Point", "coordinates": [-118.34261, 33.91283]}}, {"type": "Feature", "properties": {"name": "Manhattan Beach", "place": "town"}, "geometry": {"type": "Point", "coordinates": [-118.41043, 33.88728]}}, {"type": "Feature", "properties": {"name": "Burbank", "place": "city"}, "geometry": {"type": "Point", "coordinates": [-118.3072, 34.18121]}}, {"type": "Feature", "properties": {"name": "Commerce", "place": "town"}, "geometry": {"type": "Point", "coordinates": [-118.1542, 34.00322]}}, {"type": "Feature", "properties": {"name": "Harbor Pines", "place": "village"}, "geometry": {"type": "Point", "coordinates": [-118.30693, 33.78257]}}, {"type": "Feature", "properties": {"name": "Silver Lake", "place": "quarter"}, "geometry": {"type": "Point", "coordinates": [-118.26937, 34.08965]}}, {"type": "Feature", "properties": {"name": "Sunset Junction", "place": "neighbourhood"}, "geometry": {"type": "Point", "coordinates": [-118.28079, 34.09265]}}, {"type": "Feature", "properties": {"name": "Tarzana", "place": "suburb"}, "geometry": {"type": "Point", "coordinates": [-118.53658, 34.16893]}}, {"type": "Feature", "properties": {"name": "View Park-Windsor Hills", "place": "suburb"}, "geometry": {"type": "Point", "coordinates": [-118.33563, 34.00259]}}, {"type": "Feature", "properties": {"name": "Echo Park", "place": "suburb"}, "geometry": {"type": "Point", "coordinates": [-118.25678, 34.07798]}}, {"type": "Feature", "properties": {"name": "Bunker Hill", "place": "quarter"}, "geometry": {"type": "Point", "coordinates": [-118.25122, 34.05507]}}, {"type": "Feature", "properties": {"name": "Skid Row", "place": "quarter"}, "geometry": {"type": "Point", "coordinates": [-118.24385, 34.04406]}}, {"type": "Feature", "properties": {"name": "Westwood", "place": "suburb"}, "geometry": {"type": "Point", "coordinates": [-118.43994, 34.06689]}}, {"type": "Feature", "properties": {"name": "Fox Hills", "place": "neighbourhood"}, "geometry": {"type": "Point", "coordinates": [-118.39334, 33.9884]}}, {"type": "Feature", "properties": {"name": "Porter Ranch", "place": "suburb"}, "geometry": {"type": "Point", "coordinates": [-118.56127, 34.28182]}}, {"type": "Feature", "properties": {"name": "Arts District", "place": "quarter"}, "geometry": {"type": "Point", "coordinates": [-118.23445, 34.04124]}}, {"type": "Feature", "properties": {"name": "Financial District", "place": "quarter"}, "geometry": {"type": "Point", "coordinates": [-118.2593, 34.04576]}}, {"type": "Feature", "properties": {"name": "Fashion District", "place": "quarter"}, "geometry": {"type": "Point", "coordinates": [-118.25651, 34.03355]}}, {"type": "Feature", "properties": {"name": "South Park", "place": "quarter"}, "geometry": {"type": "Point", "coordinates": [-118.26654, 34.04041]}}, {"type": "Feature", "properties": {"name": "North Hills", "place": "suburb"}, "geometry": {"type": "Point", "coordinates": [-118.48541, 34.24296]}}, {"type": "Feature", "properties": {"name": "Arleta", "place": "suburb"}, "geometry": {"type": "Point", "coordinates": [-118.4322, 34.24133]}}, {"type": "Feature", "properties": {"name": "Baldwin Hills", "place": "quarter"}, "geometry": {"type": "Point", "coordinates": [-118.36031, 34.01461]}}, {"type": "Feature", "properties": {"name": "Beverlywood", "place": "neighbourhood"}, "geometry": {"type": "Point", "coordinates": [-118.39492, 34.04593]}}, {"type": "Feature", "properties": {"name": "Long Beach", "place": "city"}, "geometry": {"type": "Point", "coordinates": [-118.1916, 33.76902]}}, {"type": "Feature", "properties": {"name": "Tree Section", "place": "quarter"}, "geometry": {"type": "Point", "coordinates": [-118.40339, 33.89485]}}, {"type": "Feature", "properties": {"name": "Rancho San Rafael", "place": "neighbourhood"}, "geometry": {"type": "Point", "coordinates": [-118.2176, 34.16592]}}, {"type": "Feature", "properties": {"name": "Emerald Isle", "place": "neighbourhood"}, "geometry": {"type": "Point", "coordinates": [-118.20769, 34.18244]}}, {"type": "Feature", "properties": {"name": "Glendale City Center", "place": "quarter"}, "geometry": {"type": "Point", "coordinates": [-118.25504, 34.1538]}}, {"type": "Feature", "properties": {"name": "Thai Town", "place": "neighbourhood"}, "geometry": {"type": "Point", "coordinates": [-118.30486, 34.10185]}}, {"type": "Feature", "properties": {"name": "Valley Glen", "place": "suburb"}, "geometry": {"type": "Point", "coordinates": [-118.41387, 34.18264]}}, {"type": "Feature", "properties": {"name": "Bicycle District", "place": "neighbourhood"}, "geometry": {"type": "Point", "coordinates": [-118.29496, 34.08371]}}, {"type": "Feature", "properties": {"name": "Beachwood Canyon", "place": "neighbourhood"}, "geometry": {"type": "Point", "coordinates": [-118.32138, 34.12229]}}, {"type": "Feature", "properties": {"name": "Victoria Park", "place": "neighbourhood"}, "geometry": {"type": "Point", "coordinates": [-118.33077, 34.04669]}}, {"type": "Feature", "properties": {"name": "Green Meadows", "place": "quarter"}, "geometry": {"type": "Point", "coordinates": [-118.263, 33.94099]}}, {"type": "Feature", "properties": {"name": "Broadway-Manchester", "place": "quarter"}, "geometry": {"type": "Point", "coordinates": [-118.2744, 33.94101]}}, {"type": "Feature", "properties": {"name": "Vermont Vista", "place": "quarter"}, "geometry": {"type": "Point", "coordinates": [-118.28581, 33.94195]}}, {"type": "Feature", "properties": {"name": "Gramercy Park", "place": "quarter"}, "geometry": {"type": "Point", "coordinates": [-118.30933, 33.95119]}}, {"type": "Feature", "properties": {"name": "Manchester Square", "place": "quarter"}, "geometry": {"type": "Point", "coordinates": [-118.31338, 33.96637]}}, {"type": "Feature", "properties": {"name": "Vermont Knolls", "place": "suburb"}, "geometry": {"type": "Point", "coordinates": [-118.29167, 33.96682]}}, {"type": "Feature", "properties": {"name": "Del Rey", "place": "quarter"}, "geometry": {"type": "Point", "coordinates": [-118.42434, 33.98965]}}, {"type": "Feature", "properties": {"name": "Playa Vista", "place": "quarter"}, "geometry": {"type": "Point", "coordinates": [-118.41817, 33.97601]}}, {"type": "Feature", "properties": {"name": "West Los Angeles", "place": "quarter"}, "geometry": {"type": "Point", "coordinates": [-118.43025, 34.04685]}}, {"type": "Feature", "properties": {"name": "Rancho Park", "place": "quarter"}, "geometry": {"type": "Point", "coordinates": [-118.42621, 34.03417]}}, {"type": "Feature", "properties": {"name": "Cheviot Hills", "place": "quarter"}, "geometry": {"type": "Point", "coordinates": [-118.40989, 34.04059]}}, {"type": "Feature", "properties": {"name": "Palms", "place": "suburb"}, "geometry": {"type": "Point", "coordinates": [-118.41162, 34.02473]}}, {"type": "Feature", "properties": {"name": "Pico-Robertson", "place": "suburb"}, "geometry": {"type": "Point", "coordinates": [-118.38698, 34.05327]}}, {"type": "Feature", "properties": {"name": "West Adams", "place": "suburb"}, "geometry": {"type": "Point", "coordinates": [-118.35248, 34.02944]}}, {"type": "Feature", "properties": {"name": "Larchmont", "place": "neighbourhood"}, "geometry": {"type": "Point", "coordinates": [-118.31787, 34.07984]}}, {"type": "Feature", "properties": {"name": "Windsor Square", "place": "quarter"}, "geometry": {"type": "Point", "coordinates": [-118.31999, 34.06897]}}, {"type": "Feature", "properties": {"name": "Beverly Grove", "place": "quarter"}, "geometry": {"type": "Point", "coordinates": [-118.36997, 34.07603]}}, {"type": "Feature", "properties": {"name": "Fairfax", "place": "suburb"}, "geometry": {"type": "Point", "coordinates": [-118.35228, 34.07916]}}, {"type": "Feature", "properties": {"name": "East Hollywood", "place": "quarter"}, "geometry": {"type": "Point", "coordinates": [-118.29663, 34.09043]}}, {"type": "Feature", "properties": {"name": "Downtown", "place": "suburb"}, "geometry": {"type": "Point", "coordinates": [-118.2521, 34.048]}}, {"type": "Feature", "properties": {"name": "Chinatown", "place": "suburb"}, "geometry": {"type": "Point", "coordinates": [-118.23587, 34.06384]}}, {"type": "Feature", "properties": {"name": "Westlake", "place": "suburb"}, "geometry": {"type": "Point", "coordinates": [-118.27282, 34.06292]}}, {"type": "Feature", "properties": {"name": "Elysian Valley", "place": "quarter"}, "geometry": {"type": "Point", "coordinates": [-118.24203, 34.09591]}}, {"type": "Feature", "properties": {"name": "Harbor Gateway", "place": "suburb"}, "geometry": {"type": "Point", "coordinates": [-118.30279, 33.85126]}}, {"type": "Feature", "properties": {"name": "Alla", "place": "neighbourhood"}, "geometry": {"type": "Point", "coordinates": [-118.42968, 33.98159]}}, {"type": "Feature", "properties": {"name": "Adams-Normandie", "place": "quarter"}, "geometry": {"type": "Point", "coordinates": [-118.30025, 34.03179]}}, {"type": "Feature", "properties": {"name": "University Park", "place": "quarter"}, "geometry": {"type": "Point", "coordinates": [-118.28404, 34.02718]}}, {"type": "Feature", "properties": {"name": "Exposition Park", "place": "suburb"}, "geometry": {"type": "Point", "coordinates": [-118.3002, 34.01834]}}, {"type": "Feature", "properties": {"name": "Vermont Square", "place": "suburb"}, "geometry": {"type": "Point", "coordinates": [-118.30021, 34.00194]}}, {"type": "Feature", "properties": {"name": "Historic South-Central", "place": "suburb"}, "geometry": {"type": "Point", "coordinates": [-118.26731, 34.01623]}}, {"type": "Feature", "properties": {"name": "South Park", "place": "suburb"}, "geometry": {"type": "Point", "coordinates": [-118.26976, 33.99594]}}, {"type": "Feature", "properties": {"name": "Vermont-Slauson", "place": "quarter"}, "geometry": {"type": "Point", "coordinates": [-118.29154, 33.98369]}}, {"type": "Feature", "properties": {"name": "Harvard Park", "place": "neighbourhood"}, "geometry": {"type": "Point", "coordinates": [-118.30462, 33.98395]}}, {"type": "Feature", "properties": {"name": "Chesterfield Square", "place": "neighbourhood"}, "geometry": {"type": "Point", "coordinates": [-118.31365, 33.98347]}}, {"type": "Feature", "properties": {"name": "Florence", "place": "suburb"}, "geometry": {"type": "Point", "coordinates": [-118.26958, 33.97475]}}, {"type": "Feature", "properties": {"name": "Florence-Firestone", "place": "suburb"}, "geometry": {"type": "Point", "coordinates": [-118.24331, 33.96743]}}, {"type": "Feature", "properties": {"name": "Central-Alameda", "place": "suburb"}, "geometry": {"type": "Point", "coordinates": [-118.24778, 34.00402]}}, {"type": "Feature", "properties": {"name": "Montecito Heights", "place": "suburb"}, "geometry": {"type": "Point", "coordinates": [-118.19428, 34.08954]}}, {"type": "Feature", "properties": {"name": "Pico-Union", "place": "suburb"}, "geometry": {"type": "Point", "coordinates": [-118.28789, 34.04657]}}, {"type": "Feature", "properties": {"name": "Harvard Heights", "place": "neighbourhood"}, "geometry": {"type": "Point", "coordinates": [-118.30548, 34.04711]}}, {"type": "Feature", "properties": {"name": "Arlington Heights", "place": "quarter"}, "geometry": {"type": "Point", "coordinates": [-118.32137, 34.04349]}}, {"type": "Feature", "properties": {"name": "Mid-City", "place": "suburb"}, "geometry": {"type": "Point", "coordinates": [-118.36037, 34.04153]}}, {"type": "Feature", "properties": {"name": "Mid-Wilshire", "place": "suburb"}, "geometry": {"type": "Point", "coordinates": [-118.3458, 34.05686]}}, {"type": "Feature", "properties": {"name": "Beverly Crest", "place": "quarter"}, "geometry": {"type": "Point", "coordinates": [-118.43226, 34.11677]}}, {"type": "Feature", "properties": {"name": "Hollywood Hills West", "place": "neighbourhood"}, "geometry": {"type": "Point", "coordinates": [-118.37339, 34.11048]}}, {"type": "Feature", "properties": {"name": "Los Feliz", "place": "suburb"}, "geometry": {"type": "Point", "coordinates": [-118.28751, 34.10766]}}, {"type": "Feature", "properties": {"name": "Toluca Lake", "place": "neighbourhood"}, "geometry": {"type": "Point", "coordinates": [-118.35714, 34.15217]}}, {"type": "Feature", "properties": {"name": "Topanga", "place": "village"}, "geometry": {"type": "Point", "coordinates": [-118.60296, 34.0897]}}, {"type": "Feature", "properties": {"name": "Lopez/Kagel Canyons", "place": "suburb"}, "geometry": {"type": "Point", "coordinates": [-118.38257, 34.31124]}}, {"type": "Feature", "properties": {"name": "Lake Balboa", "place": "suburb"}, "geometry": {"type": "Point", "coordinates": [-118.50105, 34.19382]}}, {"type": "Feature", "properties": {"name": "Sherman Village", "place": "quarter"}, "geometry": {"type": "Point", "coordinates": [-118.41384, 34.15758]}}, {"type": "Feature", "properties": {"name": "Reseda Ranch", "place": "quarter"}, "geometry": {"type": "Point", "coordinates": [-118.54916, 34.21565]}}, {"type": "Feature", "properties": {"name": "Manhattan Village", "place": "quarter"}, "geometry": {"type": "Point", "coordinates": [-118.38738, 33.89803]}}, {"type": "Feature", "properties": {"name": "The Heights at Porter Ranch", "place": "neighbourhood"}, "geometry": {"type": "Point", "coordinates": [-118.56747, 34.28357]}}, {"type": "Feature", "properties": {"name": "North Hills East", "place": "neighbourhood"}, "geometry": {"type": "Point", "coordinates": [-118.46761, 34.23554]}}, {"type": "Feature", "properties": {"name": "Carey Ranch", "place": "neighbourhood"}, "geometry": {"type": "Point", "coordinates": [-118.46227, 34.29074]}}, {"type": "Feature", "properties": {"name": "Sylmar Acres", "place": "neighbourhood"}, "geometry": {"type": "Point", "coordinates": [-118.4733, 34.30487]}}, {"type": "Feature", "properties": {"name": "Village Green", "place": "neighbourhood"}, "geometry": {"type": "Point", "coordinates": [-118.44914, 34.29361]}}, {"type": "Feature", "properties": {"name": "Sawtelle Japantown", "place": "neighbourhood"}, "geometry": {"type": "Point", "coordinates": [-118.4425, 34.03957]}}, {"type": "Feature", "properties": {"name": "Sunkist Park", "place": "neighbourhood"}, "geometry": {"type": "Point", "coordinates": [-118.40049, 33.9933]}}, {"type": "Feature", "properties": {"name": "Alvarado Terrace Historic District", "place": "neighbourhood"}, "geometry": {"type": "Point", "coordinates": [-118.28124, 34.0451]}}, {"type": "Feature", "properties": {"name": "Miracle Mile", "place": "neighbourhood"}, "geometry": {"type": "Point", "coordinates": [-118.35151, 34.0624]}}, {"type": "Feature", "properties": {"name": "The Flats", "place": "neighbourhood"}, "geometry": {"type": "Point", "coordinates": [-118.40769, 34.07637]}}, {"type": "Feature", "properties": {"name": "Downtown Culver City", "place": "neighbourhood"}, "geometry": {"type": "Point", "coordinates": [-118.39447, 34.02386]}}, {"type": "Feature", "properties": {"name": "Castle Heights", "place": "neighbourhood"}, "geometry": {"type": "Point", "coordinates": [-118.3964, 34.03385]}}, {"type": "Feature", "properties": {"name": "Tehrangeles", "place": "neighbourhood"}, "geometry": {"type": "Point", "coordinates": [-118.44179, 34.05529]}}, {"type": "Feature", "properties": {"name": "Reynier Village", "place": "neighbourhood"}, "geometry": {"type": "Point", "coordinates": [-118.38617, 34.03616]}}, {"type": "Feature", "properties": {"name": "Holmby Hills", "place": "neighbourhood"}, "geometry": {"type": "Point", "coordinates": [-118.43001, 34.07447]}}, {"type": "Feature", "properties": {"name": "Westside Village", "place": "neighbourhood"}, "geometry": {"type": "Point", "coordinates": [-118.42115, 34.02745]}}, {"type": "Feature", "properties": {"name": "Westdale", "place": "neighbourhood"}, "geometry": {"type": "Point", "coordinates": [-118.43404, 34.02227]}}, {"type": "Feature", "properties": {"name": "Little Ethiopia", "place": "neighbourhood"}, "geometry": {"type": "Point", "coordinates": [-118.36442, 34.05683]}}, {"type": "Feature", "properties": {"name": "Culver City Arts District", "place": "neighbourhood"}, "geometry": {"type": "Point", "coordinates": [-118.37856, 34.03137]}}, {"type": "Feature", "properties": {"name": "Crenshaw", "place": "quarter"}, "geometry": {"type": "Point", "coordinates": [-118.33966, 34.01751]}}, {"type": "Feature", "properties": {"name": "Shadow Glen Estates", "place": "neighbourhood"}, "geometry": {"type": "Point", "coordinates": [-118.45817, 34.31538]}}, {"type": "Feature", "properties": {"name": "Brentwood Glen", "place": "neighbourhood"}, "geometry": {"type": "Point", "coordinates": [-118.46305, 34.06667]}}, {"type": "Feature", "properties": {"name": "Leimert Park Village", "place": "neighbourhood"}, "geometry": {"type": "Point", "coordinates": [-118.33151, 34.00426]}}, {"type": "Feature", "properties": {"name": "Historic Filipinotown", "place": "quarter"}, "geometry": {"type": "Point", "coordinates": [-118.27241, 34.07044]}}, {"type": "Feature", "properties": {"name": "Jewelry District", "place": "neighbourhood"}, "geometry": {"type": "Point", "coordinates": [-118.25442, 34.04575]}}, {"type": "Feature", "properties": {"name": "Historic Core", "place": "quarter"}, "geometry": {"type": "Point", "coordinates": [-118.24993, 34.04879]}}, {"type": "Feature", "properties": {"name": "Gallery Row", "place": "neighbourhood"}, "geometry": {"type": "Point", "coordinates": [-118.24956, 34.04655]}}, {"type": "Feature", "properties": {"name": "Civic Center", "place": "quarter"}, "geometry": {"type": "Point", "coordinates": [-118.24499, 34.05578]}}, {"type": "Feature", "properties": {"name": "Toy District", "place": "neighbourhood"}, "geometry": {"type": "Point", "coordinates": [-118.24543, 34.04657]}}, {"type": "Feature", "properties": {"name": "Pueblo de Los \u00c1ngeles", "place": "neighbourhood"}, "geometry": {"type": "Point", "coordinates": [-118.23925, 34.05666]}}, {"type": "Feature", "properties": {"name": "California Country Club Estates", "place": "neighbourhood"}, "geometry": {"type": "Point", "coordinates": [-118.40469, 34.03509]}}, {"type": "Feature", "properties": {"name": "Virgil Village", "place": "neighbourhood"}, "geometry": {"type": "Point", "coordinates": [-118.28757, 34.08618]}}, {"type": "Feature", "properties": {"name": "Rancho Cascades", "place": "quarter"}, "geometry": {"type": "Point", "coordinates": [-118.47917, 34.32127]}}, {"type": "Feature", "properties": {"name": "The Legends at Cascades", "place": "neighbourhood"}, "geometry": {"type": "Point", "coordinates": [-118.49423, 34.32431]}}, {"type": "Feature", "properties": {"name": "San Fernando Mall", "place": "neighbourhood"}, "geometry": {"type": "Point", "coordinates": [-118.44174, 34.28299]}}, {"type": "Feature", "properties": {"name": "Cagney Ranch Estates", "place": "neighbourhood"}, "geometry": {"type": "Point", "coordinates": [-118.53632, 34.29586]}}, {"type": "Feature", "properties": {"name": "Hill Section", "place": "quarter"}, "geometry": {"type": "Point", "coordinates": [-118.40043, 33.88378]}}, {"type": "Feature", "properties": {"name": "Lair Port", "place": "neighbourhood"}, "geometry": {"type": "Point", "coordinates": [-118.37866, 33.92388]}}, {"type": "Feature", "properties": {"name": "El Merrie Del", "place": "neighbourhood"}, "geometry": {"type": "Point", "coordinates": [-118.37822, 34.29512]}}, {"type": "Feature", "properties": {"name": "Little Bangladesh", "place": "neighbourhood"}, "geometry": {"type": "Point", "coordinates": [-118.29543, 34.06905]}}, {"type": "Feature", "properties": {"name": "Brentwood Village", "place": "neighbourhood"}, "geometry": {"type": "Point", "coordinates": [-118.4701, 34.06472]}}, {"type": "Feature", "properties": {"name": "Downtown Santa Monica", "place": "quarter"}, "geometry": {"type": "Point", "coordinates": [-118.4961, 34.0157]}}, {"type": "Feature", "properties": {"name": "Hayden Tract", "place": "neighbourhood"}, "geometry": {"type": "Point", "coordinates": [-118.38026, 34.0242]}}, {"type": "Feature", "properties": {"name": "San Fernando Gardens", "place": "neighbourhood"}, "geometry": {"type": "Point", "coordinates": [-118.41609, 34.26769]}}, {"type": "Feature", "properties": {"name": "Devonshire Country Estates", "place": "neighbourhood"}, "geometry": {"type": "Point", "coordinates": [-118.55633, 34.25369]}}, {"type": "Feature", "properties": {"name": "Devonshire Highlands", "place": "neighbourhood"}, "geometry": {"type": "Point", "coordinates": [-118.55582, 34.24637]}}, {"type": "Feature", "properties": {"name": "East Manhattan Beach", "place": "quarter"}, "geometry": {"type": "Point", "coordinates": [-118.38712, 33.89142]}}, {"type": "Feature", "properties": {"name": "Parkside Industrial Center", "place": "neighbourhood"}, "geometry": {"type": "Point", "coordinates": [-118.43196, 34.28067]}}, {"type": "Feature", "properties": {"name": "Glencrest Hills", "place": "neighbourhood"}, "geometry": {"type": "Point", "coordinates": [-118.34804, 34.21378]}}, {"type": "Feature", "properties": {"name": "Mid-City Heights", "place": "neighbourhood"}, "geometry": {"type": "Point", "coordinates": [-118.34448, 34.03721]}}]}